[{"OBJECT_NAME":"QIANFAN-69","OBJECT_ID":"2025-016Q","EPOCH":"2026-03-15T06:39:29.515680","MEAN_MOTION":13.51005902,"ECCENTRICITY":0.00179336,"INCLINATION":88.9658,"RA_OF_ASC_NODE":93.3653,"ARG_OF_PERICENTER":79.6988,"MEAN_ANOMALY":280.6184,"EPHEMERIS_TYPE":0,"CLASSIFICATION_TYPE":"U","NORAD_CAT_ID":62799,"ELEMENT_SET_NO":999,"REV_AT_EPOCH":5977,"BSTAR":5.4432009e-5,"MEAN_MOTION_DOT":4.7e-7,"MEAN_MOTION_DDOT":0},{"OBJECT_NAME":"QIANFAN-70","OBJECT_ID":"2025-016R","EPOCH":"2026-03-15T07:03:12.883104","MEAN_MOTION":13.50997474,"ECCENTRICITY":0.00174061,"INCLINATION":88.9678,"RA_OF_ASC_NODE":93.5216,"ARG_OF_PERICENTER":71.2088,"MEAN_ANOMALY":289.095,"EPHEMERIS_TYPE":0,"CLASSIFICATION_TYPE":"U","NORAD_CAT_ID":62800,"ELEMENT_SET_NO":999,"REV_AT_EPOCH":5973,"BSTAR":4.4920094e-5,"MEAN_MOTION_DOT":4.1e-7,"MEAN_MOTION_DDOT":0},{"OBJECT_NAME":"QIANFAN-71","OBJECT_ID":"2025-016S","EPOCH":"2026-03-15T06:57:13.216320","MEAN_MOTION":13.50997002,"ECCENTRICITY":0.00178691,"INCLINATION":88.9673,"RA_OF_ASC_NODE":93.4959,"ARG_OF_PERICENTER":82.7862,"MEAN_ANOMALY":277.532,"EPHEMERIS_TYPE":0,"CLASSIFICATION_TYPE":"U","NORAD_CAT_ID":62801,"ELEMENT_SET_NO":999,"REV_AT_EPOCH":5973,"BSTAR":5.0026786e-5,"MEAN_MOTION_DOT":4.5e-7,"MEAN_MOTION_DDOT":0},{"OBJECT_NAME":"QIANFAN-72","OBJECT_ID":"2025-016T","EPOCH":"2026-03-15T07:20:56.584608","MEAN_MOTION":13.5099659,"ECCENTRICITY":0.00211756,"INCLINATION":88.9663,"RA_OF_ASC_NODE":93.4985,"ARG_OF_PERICENTER":88.9761,"MEAN_ANOMALY":271.3816,"EPHEMERIS_TYPE":0,"CLASSIFICATION_TYPE":"U","NORAD_CAT_ID":62802,"ELEMENT_SET_NO":999,"REV_AT_EPOCH":5972,"BSTAR":5.0078983e-5,"MEAN_MOTION_DOT":4.5e-7,"MEAN_MOTION_DDOT":0},{"OBJECT_NAME":"QIANFAN-73","OBJECT_ID":"2025-046A","EPOCH":"2026-03-15T06:12:56.276352","MEAN_MOTION":13.51000901,"ECCENTRICITY":0.00136156,"INCLINATION":88.9743,"RA_OF_ASC_NODE":310.4655,"ARG_OF_PERICENTER":211.4871,"MEAN_ANOMALY":148.5466,"EPHEMERIS_TYPE":0,"CLASSIFICATION_TYPE":"U","NORAD_CAT_ID":63159,"ELEMENT_SET_NO":999,"REV_AT_EPOCH":5990,"BSTAR":0.0001715723,"MEAN_MOTION_DOT":1.23e-6,"MEAN_MOTION_DDOT":0},{"OBJECT_NAME":"QIANFAN-74","OBJECT_ID":"2025-046B","EPOCH":"2026-03-15T05:49:18.344352","MEAN_MOTION":13.51001246,"ECCENTRICITY":0.00019792,"INCLINATION":88.9743,"RA_OF_ASC_NODE":310.356,"ARG_OF_PERICENTER":79.4307,"MEAN_ANOMALY":280.7067,"EPHEMERIS_TYPE":0,"CLASSIFICATION_TYPE":"U","NORAD_CAT_ID":63160,"ELEMENT_SET_NO":999,"REV_AT_EPOCH":5996,"BSTAR":0.00021334424,"MEAN_MOTION_DOT":1.5e-6,"MEAN_MOTION_DDOT":0},{"OBJECT_NAME":"QIANFAN-75","OBJECT_ID":"2025-046C","EPOCH":"2026-03-15T07:17:51.352512","MEAN_MOTION":13.50952367,"ECCENTRICITY":0.001472,"INCLINATION":88.9745,"RA_OF_ASC_NODE":310.5846,"ARG_OF_PERICENTER":215.1937,"MEAN_ANOMALY":144.8243,"EPHEMERIS_TYPE":0,"CLASSIFICATION_TYPE":"U","NORAD_CAT_ID":63161,"ELEMENT_SET_NO":999,"REV_AT_EPOCH":5984,"BSTAR":0.00020236254,"MEAN_MOTION_DOT":1.43e-6,"MEAN_MOTION_DDOT":0},{"OBJECT_NAME":"QIANFAN-76","OBJECT_ID":"2025-046D","EPOCH":"2026-03-15T07:12:07.774272","MEAN_MOTION":13.51002495,"ECCENTRICITY":0.00122354,"INCLINATION":88.9744,"RA_OF_ASC_NODE":310.5649,"ARG_OF_PERICENTER":214.9613,"MEAN_ANOMALY":145.0736,"EPHEMERIS_TYPE":0,"CLASSIFICATION_TYPE":"U","NORAD_CAT_ID":63162,"ELEMENT_SET_NO":999,"REV_AT_EPOCH":5985,"BSTAR":0.00024696011,"MEAN_MOTION_DOT":1.72e-6,"MEAN_MOTION_DDOT":0},{"OBJECT_NAME":"QIANFAN-77","OBJECT_ID":"2025-046E","EPOCH":"2026-03-15T06:49:18.570144","MEAN_MOTION":13.96180956,"ECCENTRICITY":0.00156157,"INCLINATION":88.974,"RA_OF_ASC_NODE":307.8124,"ARG_OF_PERICENTER":144.8849,"MEAN_ANOMALY":215.336,"EPHEMERIS_TYPE":0,"CLASSIFICATION_TYPE":"U","NORAD_CAT_ID":63163,"ELEMENT_SET_NO":999,"REV_AT_EPOCH":6136,"BSTAR":0.00023062569,"MEAN_MOTION_DOT":3.31e-6,"MEAN_MOTION_DDOT":0},{"OBJECT_NAME":"QIANFAN-78","OBJECT_ID":"2025-046F","EPOCH":"2026-03-15T06:24:47.174688","MEAN_MOTION":13.5100184,"ECCENTRICITY":0.00135254,"INCLINATION":88.9743,"RA_OF_ASC_NODE":310.4314,"ARG_OF_PERICENTER":218.2741,"MEAN_ANOMALY":141.7452,"EPHEMERIS_TYPE":0,"CLASSIFICATION_TYPE":"U","NORAD_CAT_ID":63164,"ELEMENT_SET_NO":999,"REV_AT_EPOCH":5992,"BSTAR":0.00024156162,"MEAN_MOTION_DOT":1.68e-6,"MEAN_MOTION_DDOT":0},{"OBJECT_NAME":"QIANFAN-79","OBJECT_ID":"2025-046G","EPOCH":"2026-03-15T07:06:21.637728","MEAN_MOTION":13.5101171,"ECCENTRICITY":0.00134251,"INCLINATION":88.9747,"RA_OF_ASC_NODE":310.5396,"ARG_OF_PERICENTER":216.3159,"MEAN_ANOMALY":143.7082,"EPHEMERIS_TYPE":0,"CLASSIFICATION_TYPE":"U","NORAD_CAT_ID":63165,"ELEMENT_SET_NO":999,"REV_AT_EPOCH":5987,"BSTAR":0.0002125898,"MEAN_MOTION_DOT":1.49e-6,"MEAN_MOTION_DDOT":0},{"OBJECT_NAME":"QIANFAN-80","OBJECT_ID":"2025-046H","EPOCH":"2026-03-15T05:43:17.096448","MEAN_MOTION":13.51000927,"ECCENTRICITY":0.00121697,"INCLINATION":88.9744,"RA_OF_ASC_NODE":310.2499,"ARG_OF_PERICENTER":220.7767,"MEAN_ANOMALY":139.2475,"EPHEMERIS_TYPE":0,"CLASSIFICATION_TYPE":"U","NORAD_CAT_ID":63166,"ELEMENT_SET_NO":999,"REV_AT_EPOCH":6002,"BSTAR":0.00019194067,"MEAN_MOTION_DOT":1.36e-6,"MEAN_MOTION_DDOT":0},{"OBJECT_NAME":"QIANFAN-81","OBJECT_ID":"2025-046J","EPOCH":"2026-03-15T05:11:58.724160","MEAN_MOTION":13.50985928,"ECCENTRICITY":0.00134457,"INCLINATION":88.9744,"RA_OF_ASC_NODE":310.32,"ARG_OF_PERICENTER":209.2525,"MEAN_ANOMALY":150.7874,"EPHEMERIS_TYPE":0,"CLASSIFICATION_TYPE":"U","NORAD_CAT_ID":63167,"ELEMENT_SET_NO":999,"REV_AT_EPOCH":5997,"BSTAR":0.00011894384,"MEAN_MOTION_DOT":8.9e-7,"MEAN_MOTION_DDOT":0},{"OBJECT_NAME":"QIANFAN-82","OBJECT_ID":"2025-046K","EPOCH":"2026-03-15T06:01:06.426912","MEAN_MOTION":13.51002392,"ECCENTRICITY":0.00113781,"INCLINATION":88.9744,"RA_OF_ASC_NODE":310.3604,"ARG_OF_PERICENTER":216.1347,"MEAN_ANOMALY":143.9036,"EPHEMERIS_TYPE":0,"CLASSIFICATION_TYPE":"U","NORAD_CAT_ID":63168,"ELEMENT_SET_NO":999,"REV_AT_EPOCH":5996,"BSTAR":0.00018644031,"MEAN_MOTION_DOT":1.32e-6,"MEAN_MOTION_DDOT":0},{"OBJECT_NAME":"QIANFAN-83","OBJECT_ID":"2025-046L","EPOCH":"2026-03-15T06:22:18.088032","MEAN_MOTION":13.62025442,"ECCENTRICITY":0.00132069,"INCLINATION":88.9744,"RA_OF_ASC_NODE":309.9535,"ARG_OF_PERICENTER":194.6359,"MEAN_ANOMALY":165.4417,"EPHEMERIS_TYPE":0,"CLASSIFICATION_TYPE":"U","NORAD_CAT_ID":63169,"ELEMENT_SET_NO":999,"REV_AT_EPOCH":6019,"BSTAR":0.00021920661,"MEAN_MOTION_DOT":1.81e-6,"MEAN_MOTION_DDOT":0},{"OBJECT_NAME":"QIANFAN-84","OBJECT_ID":"2025-046M","EPOCH":"2026-03-15T06:42:52.864128","MEAN_MOTION":13.50833603,"ECCENTRICITY":0.00146851,"INCLINATION":88.9744,"RA_OF_ASC_NODE":310.4901,"ARG_OF_PERICENTER":213.5639,"MEAN_ANOMALY":146.4583,"EPHEMERIS_TYPE":0,"CLASSIFICATION_TYPE":"U","NORAD_CAT_ID":63170,"ELEMENT_SET_NO":999,"REV_AT_EPOCH":5989,"BSTAR":0.0002474368,"MEAN_MOTION_DOT":1.71e-6,"MEAN_MOTION_DDOT":0},{"OBJECT_NAME":"QIANFAN-85","OBJECT_ID":"2025-046N","EPOCH":"2026-03-15T06:36:36.154080","MEAN_MOTION":13.51004994,"ECCENTRICITY":0.00118124,"INCLINATION":88.9743,"RA_OF_ASC_NODE":310.3617,"ARG_OF_PERICENTER":214.9126,"MEAN_ANOMALY":145.1251,"EPHEMERIS_TYPE":0,"CLASSIFICATION_TYPE":"U","NORAD_CAT_ID":63171,"ELEMENT_SET_NO":999,"REV_AT_EPOCH":5996,"BSTAR":0.00018907454,"MEAN_MOTION_DOT":1.34e-6,"MEAN_MOTION_DDOT":0}]
