QIANFAN-69              
1 62799U 25016Q   26074.27742495  .00000047  00000+0  54432-4 0  9998
2 62799  88.9658  93.3653 0017933  79.6988 280.6184 13.51005902 59771
QIANFAN-70              
1 62800U 25016R   26074.29389911  .00000041  00000+0  44920-4 0  9998
2 62800  88.9678  93.5216 0017406  71.2088 289.0950 13.50997474 59730
QIANFAN-71              
1 62801U 25016S   26074.28973630  .00000045  00000+0  50027-4 0  9994
2 62801  88.9673  93.4959 0017869  82.7862 277.5320 13.50997002 59739
QIANFAN-72              
1 62802U 25016T   26074.30621047  .00000045  00000+0  50079-4 0  9997
2 62802  88.9663  93.4985 0021175  88.9761 271.3816 13.50996590 59721
QIANFAN-73              
1 63159U 25046A   26074.25898468  .00000123  00000+0  17157-3 0  9999
2 63159  88.9743 310.4655 0013615 211.4871 148.5466 13.51000901 59906
QIANFAN-74              
1 63160U 25046B   26074.24257343  .00000150  00000+0  21334-3 0  9993
2 63160  88.9743 310.3560 0001979  79.4307 280.7067 13.51001246 59963
QIANFAN-75              
1 63161U 25046C   26074.30406658  .00000143  00000+0  20236-3 0  9998
2 63161  88.9745 310.5846 0014720 215.1937 144.8243 13.50952367 59842
QIANFAN-76              
1 63162U 25046D   26074.30008998  .00000172  00000+0  24696-3 0  9990
2 63162  88.9744 310.5649 0012235 214.9613 145.0736 13.51002495 59850
QIANFAN-77              
1 63163U 25046E   26074.28424271  .00000331  00000+0  23063-3 0  9998
2 63163  88.9740 307.8124 0015615 144.8849 215.3360 13.96180956 61362
QIANFAN-78              
1 63164U 25046F   26074.26721267  .00000168  00000+0  24156-3 0  9994
2 63164  88.9743 310.4314 0013525 218.2741 141.7452 13.51001840 59920
QIANFAN-79              
1 63165U 25046G   26074.29608377  .00000149  00000+0  21259-3 0  9994
2 63165  88.9747 310.5396 0013425 216.3159 143.7082 13.51011710 59879
QIANFAN-80              
1 63166U 25046H   26074.23839232  .00000136  00000+0  19194-3 0  9996
2 63166  88.9744 310.2499 0012169 220.7767 139.2475 13.51000927 60029
QIANFAN-81              
1 63167U 25046J   26074.21665190  .00000089  00000+0  11894-3 0  9991
2 63167  88.9744 310.3200 0013445 209.2525 150.7874 13.50985928 59978
QIANFAN-82              
1 63168U 25046K   26074.25076883  .00000132  00000+0  18644-3 0  9990
2 63168  88.9744 310.3604 0011378 216.1347 143.9036 13.51002392 59968
QIANFAN-83              
1 63169U 25046L   26074.26548713  .00000181  00000+0  21921-3 0  9994
2 63169  88.9744 309.9535 0013206 194.6359 165.4417 13.62025442 60193
QIANFAN-84              
1 63170U 25046M   26074.27977852  .00000171  00000+0  24744-3 0  9992
2 63170  88.9744 310.4901 0014685 213.5639 146.4583 13.50833603 59894
QIANFAN-85              
1 63171U 25046N   26074.27541845  .00000134  00000+0  18907-3 0  9995
2 63171  88.9743 310.3617 0011812 214.9126 145.1251 13.51004994 59962
